{
  "type": "FeatureCollection",
  "features": [
    {
      "type": "Feature",
      "properties": {
        "norad_id": 33924,
        "name": "COSMOS 2251 DEB",
        "group": "cosmos-2251-debris",
        "lat": -58.108626062699734,
        "lon": 108.90368038691727,
        "alt_km": 892.2982298628767,
        "timestamp": "2025-12-18T07:01:54.982547+00:00",
        "meta_object_name": "COSMOS 2251 DEB",
        "meta_object_id": "1993-036ED",
        "meta_epoch": "2025-12-17T20:54:29.135520",
        "meta_mean_motion": 13.50232474,
        "meta_eccentricity": 0.04039466,
        "meta_inclination": 73.9135,
        "meta_ra_of_asc_node": 261.9531,
        "meta_arg_of_pericenter": 296.5014,
        "meta_mean_anomaly": 59.5198,
        "meta_ephemeris_type": 0,
        "meta_classification_type": "U",
        "meta_norad_cat_id": 33924,
        "meta_element_set_no": 999,
        "meta_rev_at_epoch": 82808,
        "meta_bstar": 0.00050358146,
        "meta_mean_motion_dot": 5.1e-06,
        "meta_mean_motion_ddot": 0,
        "tle_line1": "1 33924U 93036ED  25351.87117055  .00000510  00000+0  50358-3 0  9991",
        "tle_line2": "2 33924  73.9135 261.9531 0403946 296.5014  59.5198 13.50232474828085"
      },
      "geometry": {
        "type": "Point",
        "coordinates": [
          108.90368038691727,
          -58.108626062699734
        ]
      }
    },
    {
      "type": "Feature",
      "properties": {
        "norad_id": 33928,
        "name": "COSMOS 2251 DEB",
        "group": "cosmos-2251-debris",
        "lat": -56.58823779034889,
        "lon": 16.19164913659589,
        "alt_km": 704.9026054889573,
        "timestamp": "2025-12-18T07:01:54.982558+00:00",
        "meta_object_name": "COSMOS 2251 DEB",
        "meta_object_id": "1993-036EH",
        "meta_epoch": "2025-12-17T21:21:14.753376",
        "meta_mean_motion": 14.47413856,
        "meta_eccentricity": 0.0061716,
        "meta_inclination": 73.9257,
        "meta_ra_of_asc_node": 42.869,
        "meta_arg_of_pericenter": 335.9064,
        "meta_mean_anomaly": 23.9209,
        "meta_ephemeris_type": 0,
        "meta_classification_type": "U",
        "meta_norad_cat_id": 33928,
        "meta_element_set_no": 999,
        "meta_rev_at_epoch": 88719,
        "meta_bstar": 0.0001975263,
        "meta_mean_motion_dot": 7.12e-06,
        "meta_mean_motion_ddot": 0,
        "tle_line1": "1 33928U 93036EH  25351.88975409  .00000712  00000+0  19753-3 0  9999",
        "tle_line2": "2 33928  73.9257  42.8690 0061716 335.9064  23.9209 14.47413856887191"
      },
      "geometry": {
        "type": "Point",
        "coordinates": [
          16.19164913659589,
          -56.58823779034889
        ]
      }
    },
    {
      "type": "Feature",
      "properties": {
        "norad_id": 33932,
        "name": "COSMOS 2251 DEB",
        "group": "cosmos-2251-debris",
        "lat": -73.12965455340236,
        "lon": -163.5824369198255,
        "alt_km": 780.5747657816673,
        "timestamp": "2025-12-18T07:01:54.982568+00:00",
        "meta_object_name": "COSMOS 2251 DEB",
        "meta_object_id": "1993-036EM",
        "meta_epoch": "2025-12-17T21:27:41.771808",
        "meta_mean_motion": 14.38773049,
        "meta_eccentricity": 0.00355789,
        "meta_inclination": 74.034,
        "meta_ra_of_asc_node": 306.4106,
        "meta_arg_of_pericenter": 21.3288,
        "meta_mean_anomaly": 338.934,
        "meta_ephemeris_type": 0,
        "meta_classification_type": "U",
        "meta_norad_cat_id": 33932,
        "meta_element_set_no": 999,
        "meta_rev_at_epoch": 88072,
        "meta_bstar": 0.00039316761,
        "meta_mean_motion_dot": 1.191e-05,
        "meta_mean_motion_ddot": 0,
        "tle_line1": "1 33932U 93036EM  25351.89423347  .00001191  00000+0  39317-3 0  9994",
        "tle_line2": "2 33932  74.0340 306.4106 0035578  21.3288 338.9340 14.38773049880723"
      },
      "geometry": {
        "type": "Point",
        "coordinates": [
          -163.5824369198255,
          -73.12965455340236
        ]
      }
    },
    {
      "type": "Feature",
      "properties": {
        "norad_id": 33933,
        "name": "COSMOS 2251 DEB",
        "group": "cosmos-2251-debris",
        "lat": 6.899936223760578,
        "lon": 51.99396883869023,
        "alt_km": 748.5767857720457,
        "timestamp": "2025-12-18T07:01:54.982579+00:00",
        "meta_object_name": "COSMOS 2251 DEB",
        "meta_object_id": "1993-036EN",
        "meta_epoch": "2025-12-17T20:56:58.073568",
        "meta_mean_motion": 14.33496777,
        "meta_eccentricity": 0.00708511,
        "meta_inclination": 74.0893,
        "meta_ra_of_asc_node": 50.7812,
        "meta_arg_of_pericenter": 57.6538,
        "meta_mean_anomaly": 303.1447,
        "meta_ephemeris_type": 0,
        "meta_classification_type": "U",
        "meta_norad_cat_id": 33933,
        "meta_element_set_no": 999,
        "meta_rev_at_epoch": 87858,
        "meta_bstar": 0.00021610356,
        "meta_mean_motion_dot": 5.89e-06,
        "meta_mean_motion_ddot": 0,
        "tle_line1": "1 33933U 93036EN  25351.87289437  .00000589  00000+0  21610-3 0  9990",
        "tle_line2": "2 33933  74.0893  50.7812 0070851  57.6538 303.1447 14.33496777878581"
      },
      "geometry": {
        "type": "Point",
        "coordinates": [
          51.99396883869023,
          6.899936223760578
        ]
      }
    },
    {
      "type": "Feature",
      "properties": {
        "norad_id": 33934,
        "name": "COSMOS 2251 DEB",
        "group": "cosmos-2251-debris",
        "lat": -72.68657858101794,
        "lon": 23.33366419615571,
        "alt_km": 697.8752269027627,
        "timestamp": "2025-12-18T07:01:54.982589+00:00",
        "meta_object_name": "COSMOS 2251 DEB",
        "meta_object_id": "1993-036EP",
        "meta_epoch": "2025-12-17T16:36:13.965120",
        "meta_mean_motion": 14.59150764,
        "meta_eccentricity": 0.00154944,
        "meta_inclination": 74.0384,
        "meta_ra_of_asc_node": 91.1363,
        "meta_arg_of_pericenter": 215.0285,
        "meta_mean_anomaly": 144.9863,
        "meta_ephemeris_type": 0,
        "meta_classification_type": "U",
        "meta_norad_cat_id": 33934,
        "meta_element_set_no": 999,
        "meta_rev_at_epoch": 88811,
        "meta_bstar": 0.0006938547,
        "meta_mean_motion_dot": 3.246e-05,
        "meta_mean_motion_ddot": 0,
        "tle_line1": "1 33934U 93036EP  25351.69182830  .00003246  00000+0  69385-3 0  9994",
        "tle_line2": "2 33934  74.0384  91.1363 0015494 215.0285 144.9863 14.59150764888112"
      },
      "geometry": {
        "type": "Point",
        "coordinates": [
          23.33366419615571,
          -72.68657858101794
        ]
      }
    },
    {
      "type": "Feature",
      "properties": {
        "norad_id": 33936,
        "name": "COSMOS 2251 DEB",
        "group": "cosmos-2251-debris",
        "lat": -45.626207222892305,
        "lon": -136.09585067947836,
        "alt_km": 685.406318025548,
        "timestamp": "2025-12-18T07:01:54.982599+00:00",
        "meta_object_name": "COSMOS 2251 DEB",
        "meta_object_id": "1993-036ER",
        "meta_epoch": "2025-12-17T13:33:02.381760",
        "meta_mean_motion": 14.60301566,
        "meta_eccentricity": 0.00272144,
        "meta_inclination": 74.0184,
        "meta_ra_of_asc_node": 28.2627,
        "meta_arg_of_pericenter": 182.6485,
        "meta_mean_anomaly": 177.4542,
        "meta_ephemeris_type": 0,
        "meta_classification_type": "U",
        "meta_norad_cat_id": 33936,
        "meta_element_set_no": 999,
        "meta_rev_at_epoch": 88960,
        "meta_bstar": 0.00048376685,
        "meta_mean_motion_dot": 2.319e-05,
        "meta_mean_motion_ddot": 0,
        "tle_line1": "1 33936U 93036ER  25351.56461090  .00002319  00000+0  48377-3 0  9998",
        "tle_line2": "2 33936  74.0184  28.2627 0027214 182.6485 177.4542 14.60301566889600"
      },
      "geometry": {
        "type": "Point",
        "coordinates": [
          -136.09585067947836,
          -45.626207222892305
        ]
      }
    },
    {
      "type": "Feature",
      "properties": {
        "norad_id": 33938,
        "name": "COSMOS 2251 DEB",
        "group": "cosmos-2251-debris",
        "lat": 7.818935295537835,
        "lon": 14.556605503287924,
        "alt_km": 741.0447529958483,
        "timestamp": "2025-12-18T07:01:54.982609+00:00",
        "meta_object_name": "COSMOS 2251 DEB",
        "meta_object_id": "1993-036ET",
        "meta_epoch": "2025-12-17T20:22:08.881824",
        "meta_mean_motion": 14.46808473,
        "meta_eccentricity": 0.00168601,
        "meta_inclination": 74.0437,
        "meta_ra_of_asc_node": 197.6375,
        "meta_arg_of_pericenter": 279.2844,
        "meta_mean_anomaly": 99.537,
        "meta_ephemeris_type": 0,
        "meta_classification_type": "U",
        "meta_norad_cat_id": 33938,
        "meta_element_set_no": 999,
        "meta_rev_at_epoch": 88474,
        "meta_bstar": 0.00034390732,
        "meta_mean_motion_dot": 1.221e-05,
        "meta_mean_motion_ddot": 0,
        "tle_line1": "1 33938U 93036ET  25351.84871391  .00001221  00000+0  34391-3 0  9992",
        "tle_line2": "2 33938  74.0437 197.6375 0016860 279.2844  99.5370 14.46808473884747"
      },
      "geometry": {
        "type": "Point",
        "coordinates": [
          14.556605503287924,
          7.818935295537835
        ]
      }
    }
  ]
}